[{"OBJECT_NAME":"ONEWEB-0589","OBJECT_ID":"2022-166P","EPOCH":"2025-08-23T06:08:01.365504","MEAN_MOTION":13.21827471,"ECCENTRICITY":0.00028478,"INCLINATION":87.9248,"RA_OF_ASC_NODE":303.4425,"ARG_OF_PERICENTER":102.9043,"MEAN_ANOMALY":257.2409,"EPHEMERIS_TYPE":0,"CLASSIFICATION_TYPE":"U","NORAD_CAT_ID":54655,"ELEMENT_SET_NO":999,"REV_AT_EPOCH":13218,"BSTAR":-1.7292306e-5,"MEAN_MOTION_DOT":6.0e-8,"MEAN_MOTION_DDOT":0},{"OBJECT_NAME":"ONEWEB-0590","OBJECT_ID":"2022-166Q","EPOCH":"2025-08-23T04:52:53.009184","MEAN_MOTION":13.21823619,"ECCENTRICITY":0.00020253,"INCLINATION":87.9245,"RA_OF_ASC_NODE":303.4295,"ARG_OF_PERICENTER":110.7357,"MEAN_ANOMALY":249.3994,"EPHEMERIS_TYPE":0,"CLASSIFICATION_TYPE":"U","NORAD_CAT_ID":54656,"ELEMENT_SET_NO":999,"REV_AT_EPOCH":13216,"BSTAR":0.00015249898,"MEAN_MOTION_DOT":7.6e-7,"MEAN_MOTION_DDOT":0},{"OBJECT_NAME":"ONEWEB-0591","OBJECT_ID":"2022-166R","EPOCH":"2025-08-23T05:11:14.680032","MEAN_MOTION":13.21827504,"ECCENTRICITY":0.00021562,"INCLINATION":87.9249,"RA_OF_ASC_NODE":303.4509,"ARG_OF_PERICENTER":99.6574,"MEAN_ANOMALY":260.4804,"EPHEMERIS_TYPE":0,"CLASSIFICATION_TYPE":"U","NORAD_CAT_ID":54657,"ELEMENT_SET_NO":999,"REV_AT_EPOCH":13219,"BSTAR":0.00020549606,"MEAN_MOTION_DOT":9.8e-7,"MEAN_MOTION_DDOT":0},{"OBJECT_NAME":"ONEWEB-0592","OBJECT_ID":"2022-166S","EPOCH":"2025-08-23T05:15:47.514816","MEAN_MOTION":13.218273,"ECCENTRICITY":0.00021292,"INCLINATION":87.9255,"RA_OF_ASC_NODE":303.4036,"ARG_OF_PERICENTER":100.9672,"MEAN_ANOMALY":259.1701,"EPHEMERIS_TYPE":0,"CLASSIFICATION_TYPE":"U","NORAD_CAT_ID":54658,"ELEMENT_SET_NO":999,"REV_AT_EPOCH":13207,"BSTAR":0.00022194281,"MEAN_MOTION_DOT":1.05e-6,"MEAN_MOTION_DDOT":0},{"OBJECT_NAME":"ONEWEB-0593","OBJECT_ID":"2022-166T","EPOCH":"2025-08-21T15:40:47.359488","MEAN_MOTION":13.21827495,"ECCENTRICITY":0.00021933,"INCLINATION":87.9249,"RA_OF_ASC_NODE":303.752,"ARG_OF_PERICENTER":99.4703,"MEAN_ANOMALY":260.6678,"EPHEMERIS_TYPE":0,"CLASSIFICATION_TYPE":"U","NORAD_CAT_ID":54659,"ELEMENT_SET_NO":999,"REV_AT_EPOCH":13197,"BSTAR":-0.0001090153,"MEAN_MOTION_DOT":-3.2e-7,"MEAN_MOTION_DDOT":0},{"OBJECT_NAME":"ONEWEB-0594","OBJECT_ID":"2022-166U","EPOCH":"2025-08-23T06:17:06.527904","MEAN_MOTION":13.21828144,"ECCENTRICITY":0.00020547,"INCLINATION":87.9254,"RA_OF_ASC_NODE":303.4476,"ARG_OF_PERICENTER":95.4452,"MEAN_ANOMALY":264.6916,"EPHEMERIS_TYPE":0,"CLASSIFICATION_TYPE":"U","NORAD_CAT_ID":54660,"ELEMENT_SET_NO":999,"REV_AT_EPOCH":13220,"BSTAR":-0.00060245277,"MEAN_MOTION_DOT":-2.36e-6,"MEAN_MOTION_DDOT":0},{"OBJECT_NAME":"ONEWEB-0595","OBJECT_ID":"2022-166V","EPOCH":"2025-08-21T17:25:14.265120","MEAN_MOTION":13.21827461,"ECCENTRICITY":0.00018043,"INCLINATION":87.9249,"RA_OF_ASC_NODE":303.7292,"ARG_OF_PERICENTER":99.6948,"MEAN_ANOMALY":260.439,"EPHEMERIS_TYPE":0,"CLASSIFICATION_TYPE":"U","NORAD_CAT_ID":54661,"ELEMENT_SET_NO":999,"REV_AT_EPOCH":13197,"BSTAR":-4.5924796e-5,"MEAN_MOTION_DOT":-6.0e-8,"MEAN_MOTION_DDOT":0},{"OBJECT_NAME":"ONEWEB-0596","OBJECT_ID":"2022-166W","EPOCH":"2025-08-23T05:06:41.835744","MEAN_MOTION":13.21827498,"ECCENTRICITY":0.00019723,"INCLINATION":87.9251,"RA_OF_ASC_NODE":303.448,"ARG_OF_PERICENTER":99.897,"MEAN_ANOMALY":260.2386,"EPHEMERIS_TYPE":0,"CLASSIFICATION_TYPE":"U","NORAD_CAT_ID":54662,"ELEMENT_SET_NO":999,"REV_AT_EPOCH":13217,"BSTAR":0.0002760097,"MEAN_MOTION_DOT":1.27e-6,"MEAN_MOTION_DDOT":0},{"OBJECT_NAME":"ONEWEB-0597","OBJECT_ID":"2022-166X","EPOCH":"2025-08-23T06:28:28.439040","MEAN_MOTION":13.21826485,"ECCENTRICITY":0.00021678,"INCLINATION":87.925,"RA_OF_ASC_NODE":303.44,"ARG_OF_PERICENTER":98.5271,"MEAN_ANOMALY":261.6109,"EPHEMERIS_TYPE":0,"CLASSIFICATION_TYPE":"U","NORAD_CAT_ID":54663,"ELEMENT_SET_NO":999,"REV_AT_EPOCH":13218,"BSTAR":-4.2932713e-5,"MEAN_MOTION_DOT":-5.0e-8,"MEAN_MOTION_DDOT":0},{"OBJECT_NAME":"ONEWEB-0600","OBJECT_ID":"2022-166Y","EPOCH":"2025-08-23T06:03:28.775232","MEAN_MOTION":13.21827774,"ECCENTRICITY":0.00021538,"INCLINATION":87.9241,"RA_OF_ASC_NODE":303.4383,"ARG_OF_PERICENTER":94.7072,"MEAN_ANOMALY":265.4308,"EPHEMERIS_TYPE":0,"CLASSIFICATION_TYPE":"U","NORAD_CAT_ID":54664,"ELEMENT_SET_NO":999,"REV_AT_EPOCH":13215,"BSTAR":-8.2611596e-5,"MEAN_MOTION_DOT":-2.1e-7,"MEAN_MOTION_DDOT":0},{"OBJECT_NAME":"ONEWEB-0601","OBJECT_ID":"2022-166Z","EPOCH":"2025-08-20T21:33:00.326016","MEAN_MOTION":13.21829099,"ECCENTRICITY":0.0002366,"INCLINATION":87.9249,"RA_OF_ASC_NODE":303.9229,"ARG_OF_PERICENTER":101.4438,"MEAN_ANOMALY":258.6962,"EPHEMERIS_TYPE":0,"CLASSIFICATION_TYPE":"U","NORAD_CAT_ID":54665,"ELEMENT_SET_NO":999,"REV_AT_EPOCH":13203,"BSTAR":-5.0666e-5,"MEAN_MOTION_DOT":-8.0e-8,"MEAN_MOTION_DDOT":0},{"OBJECT_NAME":"ONEWEB-0602","OBJECT_ID":"2022-166AA","EPOCH":"2025-08-23T05:01:19.104960","MEAN_MOTION":13.21876281,"ECCENTRICITY":0.00024042,"INCLINATION":87.9251,"RA_OF_ASC_NODE":303.4637,"ARG_OF_PERICENTER":89.9144,"MEAN_ANOMALY":270.2265,"EPHEMERIS_TYPE":0,"CLASSIFICATION_TYPE":"U","NORAD_CAT_ID":54666,"ELEMENT_SET_NO":999,"REV_AT_EPOCH":13218,"BSTAR":9.4891005e-5,"MEAN_MOTION_DOT":5.2e-7,"MEAN_MOTION_DDOT":0},{"OBJECT_NAME":"ONEWEB-0603","OBJECT_ID":"2022-166AB","EPOCH":"2025-08-23T05:08:56.230080","MEAN_MOTION":13.21828879,"ECCENTRICITY":0.00022896,"INCLINATION":87.9246,"RA_OF_ASC_NODE":303.3983,"ARG_OF_PERICENTER":97.7657,"MEAN_ANOMALY":262.3737,"EPHEMERIS_TYPE":0,"CLASSIFICATION_TYPE":"U","NORAD_CAT_ID":54667,"ELEMENT_SET_NO":999,"REV_AT_EPOCH":13211,"BSTAR":0.00022410256,"MEAN_MOTION_DOT":1.06e-6,"MEAN_MOTION_DDOT":0},{"OBJECT_NAME":"ONEWEB-0604","OBJECT_ID":"2022-166AC","EPOCH":"2025-08-23T04:50:49.276608","MEAN_MOTION":13.21827301,"ECCENTRICITY":0.00022475,"INCLINATION":87.925,"RA_OF_ASC_NODE":303.4241,"ARG_OF_PERICENTER":94.7052,"MEAN_ANOMALY":265.4339,"EPHEMERIS_TYPE":0,"CLASSIFICATION_TYPE":"U","NORAD_CAT_ID":54668,"ELEMENT_SET_NO":999,"REV_AT_EPOCH":13207,"BSTAR":0.00013760858,"MEAN_MOTION_DOT":7.0e-7,"MEAN_MOTION_DDOT":0},{"OBJECT_NAME":"ONEWEB-0605","OBJECT_ID":"2022-166AD","EPOCH":"2025-08-23T04:41:45.558816","MEAN_MOTION":13.21822724,"ECCENTRICITY":0.0002551,"INCLINATION":87.9248,"RA_OF_ASC_NODE":303.456,"ARG_OF_PERICENTER":108.1563,"MEAN_ANOMALY":251.9849,"EPHEMERIS_TYPE":0,"CLASSIFICATION_TYPE":"U","NORAD_CAT_ID":54669,"ELEMENT_SET_NO":999,"REV_AT_EPOCH":13214,"BSTAR":0.0001455828,"MEAN_MOTION_DOT":7.3e-7,"MEAN_MOTION_DDOT":0},{"OBJECT_NAME":"ONEWEB-0606","OBJECT_ID":"2022-166AE","EPOCH":"2025-08-21T16:53:28.357152","MEAN_MOTION":13.21827429,"ECCENTRICITY":0.00018229,"INCLINATION":87.925,"RA_OF_ASC_NODE":303.764,"ARG_OF_PERICENTER":98.2209,"MEAN_ANOMALY":261.9132,"EPHEMERIS_TYPE":0,"CLASSIFICATION_TYPE":"U","NORAD_CAT_ID":54670,"ELEMENT_SET_NO":999,"REV_AT_EPOCH":13200,"BSTAR":0.0001600983,"MEAN_MOTION_DOT":7.9e-7,"MEAN_MOTION_DDOT":0},{"OBJECT_NAME":"ONEWEB-0607","OBJECT_ID":"2022-166AF","EPOCH":"2025-08-23T06:14:52.899072","MEAN_MOTION":13.21825923,"ECCENTRICITY":0.00021583,"INCLINATION":87.9246,"RA_OF_ASC_NODE":303.4183,"ARG_OF_PERICENTER":97.5505,"MEAN_ANOMALY":262.5874,"EPHEMERIS_TYPE":0,"CLASSIFICATION_TYPE":"U","NORAD_CAT_ID":54671,"ELEMENT_SET_NO":999,"REV_AT_EPOCH":13218,"BSTAR":7.5758706e-5,"MEAN_MOTION_DOT":4.4e-7,"MEAN_MOTION_DDOT":0}]
