ONEWEB-0589             
1 54655U 22166P   25235.25557136  .00000006  00000+0 -17292-4 0  9994
2 54655  87.9248 303.4425 0002847 102.9043 257.2409 13.21827471132186
ONEWEB-0590             
1 54656U 22166Q   25235.20339131  .00000076  00000+0  15250-3 0  9990
2 54656  87.9245 303.4295 0002025 110.7357 249.3994 13.21823619132161
ONEWEB-0591             
1 54657U 22166R   25235.21614213  .00000098  00000+0  20550-3 0  9992
2 54657  87.9249 303.4509 0002156  99.6574 260.4804 13.21827504132199
ONEWEB-0592             
1 54658U 22166S   25235.21929994  .00000105  00000+0  22194-3 0  9993
2 54658  87.9255 303.4036 0002129 100.9672 259.1701 13.21827300132079
ONEWEB-0593             
1 54659U 22166T   25233.65332592 -.00000032  00000+0 -10902-3 0  9997
2 54659  87.9249 303.7520 0002193  99.4703 260.6678 13.21827495131975
ONEWEB-0594             
1 54660U 22166U   25235.26188111 -.00000236  00000+0 -60245-3 0  9995
2 54660  87.9254 303.4476 0002054  95.4452 264.6916 13.21828144132201
ONEWEB-0595             
1 54661U 22166V   25233.72585955 -.00000006  00000+0 -45925-4 0  9996
2 54661  87.9249 303.7292 0001804  99.6948 260.4390 13.21827461131977
ONEWEB-0596             
1 54662U 22166W   25235.21298421  .00000127  00000+0  27601-3 0  9994
2 54662  87.9251 303.4480 0001972  99.8970 260.2386 13.21827498132176
ONEWEB-0597             
1 54663U 22166X   25235.26977360 -.00000005  00000+0 -42933-4 0  9999
2 54663  87.9250 303.4400 0002167  98.5271 261.6109 13.21826485132189
ONEWEB-0600             
1 54664U 22166Y   25235.25241638 -.00000021  00000+0 -82612-4 0  9997
2 54664  87.9241 303.4383 0002153  94.7072 265.4308 13.21827774132154
ONEWEB-0601             
1 54665U 22166Z   25232.89792044 -.00000008  00000+0 -50666-4 0  9996
2 54665  87.9249 303.9229 0002366 101.4438 258.6962 13.21829099132034
ONEWEB-0602             
1 54666U 22166AA  25235.20924890  .00000052  00000+0  94891-4 0  9996
2 54666  87.9251 303.4637 0002404  89.9144 270.2265 13.21876281132180
ONEWEB-0603             
1 54667U 22166AB  25235.21453970  .00000106  00000+0  22410-3 0  9991
2 54667  87.9246 303.3983 0002289  97.7657 262.3737 13.21828879132114
ONEWEB-0604             
1 54668U 22166AC  25235.20195922  .00000070  00000+0  13761-3 0  9990
2 54668  87.9250 303.4241 0002247  94.7052 265.4339 13.21827301132074
ONEWEB-0605             
1 54669U 22166AD  25235.19566619  .00000073  00000+0  14558-3 0  9992
2 54669  87.9248 303.4560 0002551 108.1563 251.9849 13.21822724132149
ONEWEB-0606             
1 54670U 22166AE  25233.70380043  .00000079  00000+0  16010-3 0  9995
2 54670  87.9250 303.7640 0001822  98.2209 261.9132 13.21827429132000
ONEWEB-0607             
1 54671U 22166AF  25235.26033448  .00000044  00000+0  75759-4 0  9991
2 54671  87.9246 303.4183 0002158  97.5505 262.5874 13.21825923132185
